SENTINEL-6              
1 46984U 20086A   23256.51554970 -.00000047  00000+0  61426-4 0  9995
2 46984  66.0409  67.9953 0007849 268.2396  91.7720 12.80929784131260
